ZORKIY-2M 1             
1 57177U 23091M   26116.48715416  .00007839  00000+0  36402-3 0  9998
2 57177  97.5135 175.6326 0011844 299.6884  60.3171 15.20228593156145
CUBESX-HSE 3 (RS42S)    
1 57178U 23091N   26116.45930771  .00015900  00000+0  55052-3 0  9999
2 57178  97.5129 181.4376 0009355 274.0069  86.0102 15.29906279156518
MONITOR-3 (RS58S)       
1 57180U 23091Q   26116.50534473  .00012680  00000+0  48320-3 0  9999
2 57180  97.5121 179.6046 0010199 282.1393  77.8702 15.26800294156403
MONITOR-4 (RS57S)       
1 57182U 23091S   26116.48762931  .00012223  00000+0  46459-3 0  9994
2 57182  97.5116 179.5548 0010171 282.5732  77.4369 15.26894513156408
MONITOR-2 (RS39S)       
1 57184U 23091U   26116.45763769  .00005845  00000+0  28698-3 0  9990
2 57184  97.5116 175.0827 0009718 295.8038  64.2193 15.18424975156100
SVYATOBOR 1 (RS60S)     
1 57187U 23091X   26116.45871840  .00010951  00000+0  43174-3 0  9993
2 57187  97.5128 180.0160 0007904 273.1844  86.8490 15.25725148156420
HORS 1                  
1 57188U 23091Y   26116.51314169  .00010891  00000+0  42829-3 0  9996
2 57188  97.5107 179.8402 0007389 272.8575  87.1817 15.25814412156438
VIZARD-METEO (RS38S)    
1 57189U 23091Z   26116.45879355  .00019611  00000+0  59036-3 0  9990
2 57189  97.5122 184.9675 0006170 246.2920 113.7676 15.34378018156752
SITRO-AIS 6 (CHIRKIN)   
1 57192U 23091AC  26116.48947354  .00007617  00000+0  30712-3 0  9995
2 57192  97.5106 179.3192 0010317 290.5201  69.4929 15.25065787156408
SITRO-AIS 8 (ANOKHIN)   
1 57193U 23091AD  26116.46750978  .00016984  00000+0  57282-3 0  9996
2 57193  97.5093 181.3014 0009115 280.7808  79.2406 15.30747910156532
SITRO-AIS 7 (FARTUSHNIY)
1 57194U 23091AE  26116.48248139  .00006671  00000+0  27168-3 0  9992
2 57194  97.5104 179.1627 0010214 291.7830  68.2320 15.24781251156396
AVION KALUGA 650        
1 57195U 23091AF  26116.48670058  .00006471  00000+0  30511-3 0  9996
2 57195  97.5131 176.2835 0008839 293.5551  66.4755 15.19798527156172
HORS 2                  
1 57196U 23091AG  26116.47236829  .00015903  00000+0  53981-3 0  9996
2 57196  97.5123 182.8426 0006768 262.5652  97.4819 15.30572599156616
A-SEANSAT-PG1           
1 57197U 23091AH  26116.48139186  .00020400  00000+0  59892-3 0  9991
2 57197  97.5112 185.0255 0006020 256.3247 103.7326 15.35162197156777
SITRO-AIS 10 (BURDAEV)  
1 57199U 23091AK  26116.51189770  .00023316  00000+0  65206-3 0  9996
2 57199  97.5113 185.8921 0005622 247.7204 112.3444 15.36662051156820
SITRO-AIS 9 (SHCHUKIN)  
1 57201U 23091AM  26116.45767176  .00022345  00000+0  63396-3 0  9994
2 57201  97.5111 185.6048 0005815 248.7551 111.3072 15.36219111156809
