[{"OBJECT_NAME":"ZORKIY-2M 1","OBJECT_ID":"2023-091M","EPOCH":"2026-04-26T11:41:30.119424","MEAN_MOTION":15.20228593,"ECCENTRICITY":0.0011844,"INCLINATION":97.5135,"RA_OF_ASC_NODE":175.6326,"ARG_OF_PERICENTER":299.6884,"MEAN_ANOMALY":60.3171,"EPHEMERIS_TYPE":0,"CLASSIFICATION_TYPE":"U","NORAD_CAT_ID":57177,"ELEMENT_SET_NO":999,"REV_AT_EPOCH":15614,"BSTAR":0.00036402,"MEAN_MOTION_DOT":7.839e-5,"MEAN_MOTION_DDOT":0},{"OBJECT_NAME":"CUBESX-HSE 3 (RS42S)","OBJECT_ID":"2023-091N","EPOCH":"2026-04-26T11:01:24.186144","MEAN_MOTION":15.29906279,"ECCENTRICITY":0.0009355,"INCLINATION":97.5129,"RA_OF_ASC_NODE":181.4376,"ARG_OF_PERICENTER":274.0069,"MEAN_ANOMALY":86.0102,"EPHEMERIS_TYPE":0,"CLASSIFICATION_TYPE":"U","NORAD_CAT_ID":57178,"ELEMENT_SET_NO":999,"REV_AT_EPOCH":15651,"BSTAR":0.00055052,"MEAN_MOTION_DOT":0.000159,"MEAN_MOTION_DDOT":0},{"OBJECT_NAME":"MONITOR-3 (RS58S)","OBJECT_ID":"2023-091Q","EPOCH":"2026-04-26T12:07:41.784672","MEAN_MOTION":15.26800294,"ECCENTRICITY":0.0010199,"INCLINATION":97.5121,"RA_OF_ASC_NODE":179.6046,"ARG_OF_PERICENTER":282.1393,"MEAN_ANOMALY":77.8702,"EPHEMERIS_TYPE":0,"CLASSIFICATION_TYPE":"U","NORAD_CAT_ID":57180,"ELEMENT_SET_NO":999,"REV_AT_EPOCH":15640,"BSTAR":0.0004832,"MEAN_MOTION_DOT":0.0001268,"MEAN_MOTION_DDOT":0},{"OBJECT_NAME":"MONITOR-4 (RS57S)","OBJECT_ID":"2023-091S","EPOCH":"2026-04-26T11:42:11.172384","MEAN_MOTION":15.26894513,"ECCENTRICITY":0.0010171,"INCLINATION":97.5116,"RA_OF_ASC_NODE":179.5548,"ARG_OF_PERICENTER":282.5732,"MEAN_ANOMALY":77.4369,"EPHEMERIS_TYPE":0,"CLASSIFICATION_TYPE":"U","NORAD_CAT_ID":57182,"ELEMENT_SET_NO":999,"REV_AT_EPOCH":15640,"BSTAR":0.00046459,"MEAN_MOTION_DOT":0.00012223,"MEAN_MOTION_DDOT":0},{"OBJECT_NAME":"MONITOR-2 (RS39S)","OBJECT_ID":"2023-091U","EPOCH":"2026-04-26T10:58:59.896416","MEAN_MOTION":15.18424975,"ECCENTRICITY":0.0009718,"INCLINATION":97.5116,"RA_OF_ASC_NODE":175.0827,"ARG_OF_PERICENTER":295.8038,"MEAN_ANOMALY":64.2193,"EPHEMERIS_TYPE":0,"CLASSIFICATION_TYPE":"U","NORAD_CAT_ID":57184,"ELEMENT_SET_NO":999,"REV_AT_EPOCH":15610,"BSTAR":0.00028698,"MEAN_MOTION_DOT":5.845e-5,"MEAN_MOTION_DDOT":0},{"OBJECT_NAME":"SVYATOBOR 1 (RS60S)","OBJECT_ID":"2023-091X","EPOCH":"2026-04-26T11:00:33.269760","MEAN_MOTION":15.25725148,"ECCENTRICITY":0.0007904,"INCLINATION":97.5128,"RA_OF_ASC_NODE":180.016,"ARG_OF_PERICENTER":273.1844,"MEAN_ANOMALY":86.849,"EPHEMERIS_TYPE":0,"CLASSIFICATION_TYPE":"U","NORAD_CAT_ID":57187,"ELEMENT_SET_NO":999,"REV_AT_EPOCH":15642,"BSTAR":0.00043174,"MEAN_MOTION_DOT":0.00010951,"MEAN_MOTION_DDOT":0},{"OBJECT_NAME":"HORS 1","OBJECT_ID":"2023-091Y","EPOCH":"2026-04-26T12:18:55.442016","MEAN_MOTION":15.25814412,"ECCENTRICITY":0.0007389,"INCLINATION":97.5107,"RA_OF_ASC_NODE":179.8402,"ARG_OF_PERICENTER":272.8575,"MEAN_ANOMALY":87.1817,"EPHEMERIS_TYPE":0,"CLASSIFICATION_TYPE":"U","NORAD_CAT_ID":57188,"ELEMENT_SET_NO":999,"REV_AT_EPOCH":15643,"BSTAR":0.00042829,"MEAN_MOTION_DOT":0.00010891,"MEAN_MOTION_DDOT":0},{"OBJECT_NAME":"VIZARD-METEO (RS38S)","OBJECT_ID":"2023-091Z","EPOCH":"2026-04-26T11:00:39.762720","MEAN_MOTION":15.34378018,"ECCENTRICITY":0.000617,"INCLINATION":97.5122,"RA_OF_ASC_NODE":184.9675,"ARG_OF_PERICENTER":246.292,"MEAN_ANOMALY":113.7676,"EPHEMERIS_TYPE":0,"CLASSIFICATION_TYPE":"U","NORAD_CAT_ID":57189,"ELEMENT_SET_NO":999,"REV_AT_EPOCH":15675,"BSTAR":0.00059036,"MEAN_MOTION_DOT":0.00019611,"MEAN_MOTION_DDOT":0},{"OBJECT_NAME":"SITRO-AIS 6 (CHIRKIN)","OBJECT_ID":"2023-091AC","EPOCH":"2026-04-26T11:44:50.513856","MEAN_MOTION":15.25065787,"ECCENTRICITY":0.0010317,"INCLINATION":97.5106,"RA_OF_ASC_NODE":179.3192,"ARG_OF_PERICENTER":290.5201,"MEAN_ANOMALY":69.4929,"EPHEMERIS_TYPE":0,"CLASSIFICATION_TYPE":"U","NORAD_CAT_ID":57192,"ELEMENT_SET_NO":999,"REV_AT_EPOCH":15640,"BSTAR":0.00030712,"MEAN_MOTION_DOT":7.617e-5,"MEAN_MOTION_DDOT":0},{"OBJECT_NAME":"SITRO-AIS 8 (ANOKHIN)","OBJECT_ID":"2023-091AD","EPOCH":"2026-04-26T11:13:12.844992","MEAN_MOTION":15.3074791,"ECCENTRICITY":0.0009115,"INCLINATION":97.5093,"RA_OF_ASC_NODE":181.3014,"ARG_OF_PERICENTER":280.7808,"MEAN_ANOMALY":79.2406,"EPHEMERIS_TYPE":0,"CLASSIFICATION_TYPE":"U","NORAD_CAT_ID":57193,"ELEMENT_SET_NO":999,"REV_AT_EPOCH":15653,"BSTAR":0.00057282,"MEAN_MOTION_DOT":0.00016984,"MEAN_MOTION_DDOT":0},{"OBJECT_NAME":"SITRO-AIS 7 (FARTUSHNIY)","OBJECT_ID":"2023-091AE","EPOCH":"2026-04-26T11:34:46.392096","MEAN_MOTION":15.24781251,"ECCENTRICITY":0.0010214,"INCLINATION":97.5104,"RA_OF_ASC_NODE":179.1627,"ARG_OF_PERICENTER":291.783,"MEAN_ANOMALY":68.232,"EPHEMERIS_TYPE":0,"CLASSIFICATION_TYPE":"U","NORAD_CAT_ID":57194,"ELEMENT_SET_NO":999,"REV_AT_EPOCH":15639,"BSTAR":0.00027168,"MEAN_MOTION_DOT":6.671e-5,"MEAN_MOTION_DDOT":0},{"OBJECT_NAME":"AVION KALUGA 650","OBJECT_ID":"2023-091AF","EPOCH":"2026-04-26T11:40:50.930112","MEAN_MOTION":15.19798527,"ECCENTRICITY":0.0008839,"INCLINATION":97.5131,"RA_OF_ASC_NODE":176.2835,"ARG_OF_PERICENTER":293.5551,"MEAN_ANOMALY":66.4755,"EPHEMERIS_TYPE":0,"CLASSIFICATION_TYPE":"U","NORAD_CAT_ID":57195,"ELEMENT_SET_NO":999,"REV_AT_EPOCH":15617,"BSTAR":0.00030511,"MEAN_MOTION_DOT":6.471e-5,"MEAN_MOTION_DDOT":0},{"OBJECT_NAME":"HORS 2","OBJECT_ID":"2023-091AG","EPOCH":"2026-04-26T11:20:12.620256","MEAN_MOTION":15.30572599,"ECCENTRICITY":0.0006768,"INCLINATION":97.5123,"RA_OF_ASC_NODE":182.8426,"ARG_OF_PERICENTER":262.5652,"MEAN_ANOMALY":97.4819,"EPHEMERIS_TYPE":0,"CLASSIFICATION_TYPE":"U","NORAD_CAT_ID":57196,"ELEMENT_SET_NO":999,"REV_AT_EPOCH":15661,"BSTAR":0.00053981,"MEAN_MOTION_DOT":0.00015903,"MEAN_MOTION_DDOT":0},{"OBJECT_NAME":"A-SEANSAT-PG1","OBJECT_ID":"2023-091AH","EPOCH":"2026-04-26T11:33:12.256704","MEAN_MOTION":15.35162197,"ECCENTRICITY":0.000602,"INCLINATION":97.5112,"RA_OF_ASC_NODE":185.0255,"ARG_OF_PERICENTER":256.3247,"MEAN_ANOMALY":103.7326,"EPHEMERIS_TYPE":0,"CLASSIFICATION_TYPE":"U","NORAD_CAT_ID":57197,"ELEMENT_SET_NO":999,"REV_AT_EPOCH":15677,"BSTAR":0.00059892,"MEAN_MOTION_DOT":0.000204,"MEAN_MOTION_DDOT":0},{"OBJECT_NAME":"SITRO-AIS 10 (BURDAEV)","OBJECT_ID":"2023-091AK","EPOCH":"2026-04-26T12:17:07.961280","MEAN_MOTION":15.36662051,"ECCENTRICITY":0.0005622,"INCLINATION":97.5113,"RA_OF_ASC_NODE":185.8921,"ARG_OF_PERICENTER":247.7204,"MEAN_ANOMALY":112.3444,"EPHEMERIS_TYPE":0,"CLASSIFICATION_TYPE":"U","NORAD_CAT_ID":57199,"ELEMENT_SET_NO":999,"REV_AT_EPOCH":15682,"BSTAR":0.00065206,"MEAN_MOTION_DOT":0.00023316,"MEAN_MOTION_DDOT":0},{"OBJECT_NAME":"SITRO-AIS 9 (SHCHUKIN)","OBJECT_ID":"2023-091AM","EPOCH":"2026-04-26T10:59:02.840064","MEAN_MOTION":15.36219111,"ECCENTRICITY":0.0005815,"INCLINATION":97.5111,"RA_OF_ASC_NODE":185.6048,"ARG_OF_PERICENTER":248.7551,"MEAN_ANOMALY":111.3072,"EPHEMERIS_TYPE":0,"CLASSIFICATION_TYPE":"U","NORAD_CAT_ID":57201,"ELEMENT_SET_NO":999,"REV_AT_EPOCH":15680,"BSTAR":0.00063396,"MEAN_MOTION_DOT":0.00022345,"MEAN_MOTION_DDOT":0}]
